[Satellite]
VERSION=1.1
NAME=SL-16 R/B
NICKNAME=SL-16 R/B
TLE1=1 28353U 04021B   18020.86279885  .00000113  00000-0  83965-4 0  9992
TLE2=2 28353  71.0010 341.9572 0007013 239.0950 120.9483 14.14200000702921
